{
  "type": "FeatureCollection",
  "features": [
    {
      "type": "Feature",
      "properties": {
        "norad_id": 66844,
        "name": "STARLINK-36073",
        "group": "last-30-days",
        "lat": 69.8850039978223,
        "lon": -64.00548583484616,
        "alt_km": 317.2549554725156,
        "timestamp": "2025-12-12T05:47:27.527486+00:00",
        "meta_object_name": "STARLINK-36073",
        "meta_object_id": "2025-280Z",
        "meta_epoch": "2025-12-10T18:00:02.000160",
        "meta_mean_motion": 15.87818843,
        "meta_eccentricity": 0.0003729,
        "meta_inclination": 69.9926,
        "meta_ra_of_asc_node": 204.503,
        "meta_arg_of_pericenter": 269.5704,
        "meta_mean_anomaly": 314.9537,
        "meta_ephemeris_type": 0,
        "meta_classification_type": "U",
        "meta_norad_cat_id": 66844,
        "meta_element_set_no": 999,
        "meta_rev_at_epoch": 258,
        "meta_bstar": -0.0071928,
        "meta_mean_motion_dot": -0.01691191,
        "meta_mean_motion_ddot": 0,
        "tle_line1": "1 66844U 25280Z   25344.75002315 -.01691191  00000+0 -71928-2 0  9994",
        "tle_line2": "2 66844  69.9926 204.5030 0003729 269.5704 314.9537 15.87818843  2589"
      },
      "geometry": {
        "type": "Point",
        "coordinates": [
          -64.00548583484616,
          69.8850039978223
        ]
      }
    },
    {
      "type": "Feature",
      "properties": {
        "norad_id": 66845,
        "name": "STARLINK-36068",
        "group": "last-30-days",
        "lat": 67.90699786945613,
        "lon": -43.6486244166745,
        "alt_km": 317.0329194708147,
        "timestamp": "2025-12-12T05:47:27.527496+00:00",
        "meta_object_name": "STARLINK-36068",
        "meta_object_id": "2025-280AA",
        "meta_epoch": "2025-12-10T18:00:02.000160",
        "meta_mean_motion": 15.87995314,
        "meta_eccentricity": 0.00038,
        "meta_inclination": 69.9924,
        "meta_ra_of_asc_node": 204.4949,
        "meta_arg_of_pericenter": 268.3551,
        "meta_mean_anomaly": 322.8945,
        "meta_ephemeris_type": 0,
        "meta_classification_type": "U",
        "meta_norad_cat_id": 66845,
        "meta_element_set_no": 999,
        "meta_rev_at_epoch": 258,
        "meta_bstar": -0.0072002,
        "meta_mean_motion_dot": -0.01705839,
        "meta_mean_motion_ddot": 0,
        "tle_line1": "1 66845U 25280AA  25344.75002315 -.01705839  00000+0 -72002-2 0  9994",
        "tle_line2": "2 66845  69.9924 204.4949 0003800 268.3551 322.8945 15.87995314  2583"
      },
      "geometry": {
        "type": "Point",
        "coordinates": [
          -43.6486244166745,
          67.90699786945613
        ]
      }
    },
    {
      "type": "Feature",
      "properties": {
        "norad_id": 66846,
        "name": "STARLINK-36055",
        "group": "last-30-days",
        "lat": 69.14859920709777,
        "lon": -52.859089585290775,
        "alt_km": 317.1431278073451,
        "timestamp": "2025-12-12T05:47:27.527509+00:00",
        "meta_object_name": "STARLINK-36055",
        "meta_object_id": "2025-280AB",
        "meta_epoch": "2025-12-10T18:00:02.000160",
        "meta_mean_motion": 15.87905661,
        "meta_eccentricity": 0.0003748,
        "meta_inclination": 69.9925,
        "meta_ra_of_asc_node": 204.4985,
        "meta_arg_of_pericenter": 269.101,
        "meta_mean_anomaly": 319.0072,
        "meta_ephemeris_type": 0,
        "meta_classification_type": "U",
        "meta_norad_cat_id": 66846,
        "meta_element_set_no": 999,
        "meta_rev_at_epoch": 258,
        "meta_bstar": -0.0072117,
        "meta_mean_motion_dot": -0.01701487,
        "meta_mean_motion_ddot": 0,
        "tle_line1": "1 66846U 25280AB  25344.75002315 -.01701487  00000+0 -72117-2 0  9997",
        "tle_line2": "2 66846  69.9925 204.4985 0003748 269.1010 319.0072 15.87905661  2580"
      },
      "geometry": {
        "type": "Point",
        "coordinates": [
          -52.859089585290775,
          69.14859920709777
        ]
      }
    },
    {
      "type": "Feature",
      "properties": {
        "norad_id": 66847,
        "name": "STARLINK-36061",
        "group": "last-30-days",
        "lat": 68.60517593842242,
        "lon": -48.23315944009749,
        "alt_km": 317.07784357333276,
        "timestamp": "2025-12-12T05:47:27.527519+00:00",
        "meta_object_name": "STARLINK-36061",
        "meta_object_id": "2025-280AC",
        "meta_epoch": "2025-12-10T18:00:02.000160",
        "meta_mean_motion": 15.87951104,
        "meta_eccentricity": 0.0003761,
        "meta_inclination": 69.9924,
        "meta_ra_of_asc_node": 204.4971,
        "meta_arg_of_pericenter": 269.5352,
        "meta_mean_anomaly": 320.0966,
        "meta_ephemeris_type": 0,
        "meta_classification_type": "U",
        "meta_norad_cat_id": 66847,
        "meta_element_set_no": 999,
        "meta_rev_at_epoch": 253,
        "meta_bstar": -0.0072049,
        "meta_mean_motion_dot": -0.01703472,
        "meta_mean_motion_ddot": 0,
        "tle_line1": "1 66847U 25280AC  25344.75002315 -.01703472  00000+0 -72049-2 0  9998",
        "tle_line2": "2 66847  69.9924 204.4971 0003761 269.5352 320.0966 15.87951104  2535"
      },
      "geometry": {
        "type": "Point",
        "coordinates": [
          -48.23315944009749,
          68.60517593842242
        ]
      }
    },
    {
      "type": "Feature",
      "properties": {
        "norad_id": 66848,
        "name": "STARLINK-36091",
        "group": "last-30-days",
        "lat": 6.261053124654812,
        "lon": -61.27090957080504,
        "alt_km": 295.52303354133255,
        "timestamp": "2025-12-12T05:47:27.527529+00:00",
        "meta_object_name": "STARLINK-36091",
        "meta_object_id": "2025-281A",
        "meta_epoch": "2025-12-10T16:00:01.999584",
        "meta_mean_motion": 15.95185766,
        "meta_eccentricity": 0.00016928,
        "meta_inclination": 43.0014,
        "meta_ra_of_asc_node": 135.3114,
        "meta_arg_of_pericenter": 280.935,
        "meta_mean_anomaly": 204.3448,
        "meta_ephemeris_type": 0,
        "meta_classification_type": "U",
        "meta_norad_cat_id": 66848,
        "meta_element_set_no": 999,
        "meta_rev_at_epoch": 246,
        "meta_bstar": -0.0023663686,
        "meta_mean_motion_dot": -0.00965288,
        "meta_mean_motion_ddot": 0.0002924381,
        "tle_line1": "1 66848U 25281A   25344.66668981 -.00965288  29244-3 -23664-2 0  9995",
        "tle_line2": "2 66848  43.0014 135.3114 0001692 280.9350 204.3448 15.95185766  2469"
      },
      "geometry": {
        "type": "Point",
        "coordinates": [
          -61.27090957080504,
          6.261053124654812
        ]
      }
    },
    {
      "type": "Feature",
      "properties": {
        "norad_id": 66849,
        "name": "STARLINK-36102",
        "group": "last-30-days",
        "lat": 4.7615434525141955,
        "lon": -59.644075990474626,
        "alt_km": 295.42836734211596,
        "timestamp": "2025-12-12T05:47:27.527540+00:00",
        "meta_object_name": "STARLINK-36102",
        "meta_object_id": "2025-281B",
        "meta_epoch": "2025-12-10T16:00:01.999584",
        "meta_mean_motion": 15.95247309,
        "meta_eccentricity": 0.0001605,
        "meta_inclination": 43.0015,
        "meta_ra_of_asc_node": 135.306,
        "meta_arg_of_pericenter": 279.0783,
        "meta_mean_anomaly": 208.0732,
        "meta_ephemeris_type": 0,
        "meta_classification_type": "U",
        "meta_norad_cat_id": 66849,
        "meta_element_set_no": 999,
        "meta_rev_at_epoch": 246,
        "meta_bstar": -0.002361761,
        "meta_mean_motion_dot": -0.00966596,
        "meta_mean_motion_ddot": 0.00029334398,
        "tle_line1": "1 66849U 25281B   25344.66668981 -.00966596  29334-3 -23618-2 0  9998",
        "tle_line2": "2 66849  43.0015 135.3060 0001605 279.0783 208.0732 15.95247309  2463"
      },
      "geometry": {
        "type": "Point",
        "coordinates": [
          -59.644075990474626,
          4.7615434525141955
        ]
      }
    },
    {
      "type": "Feature",
      "properties": {
        "norad_id": 66850,
        "name": "STARLINK-36105",
        "group": "last-30-days",
        "lat": 2.723092915359226,
        "lon": -57.44870315822033,
        "alt_km": 295.1898227545407,
        "timestamp": "2025-12-12T05:47:27.527550+00:00",
        "meta_object_name": "STARLINK-36105",
        "meta_object_id": "2025-281C",
        "meta_epoch": "2025-12-10T16:00:01.999584",
        "meta_mean_motion": 15.95340432,
        "meta_eccentricity": 0.00015636,
        "meta_inclination": 43.0013,
        "meta_ra_of_asc_node": 135.3001,
        "meta_arg_of_pericenter": 273.869,
        "meta_mean_anomaly": 215.7585,
        "meta_ephemeris_type": 0,
        "meta_classification_type": "U",
        "meta_norad_cat_id": 66850,
        "meta_element_set_no": 999,
        "meta_rev_at_epoch": 246,
        "meta_bstar": -0.0023522064,
        "meta_mean_motion_dot": -0.00967539,
        "meta_mean_motion_ddot": 0.00029414388,
        "tle_line1": "1 66850U 25281C   25344.66668981 -.00967539  29414-3 -23522-2 0  9991",
        "tle_line2": "2 66850  43.0013 135.3001 0001563 273.8690 215.7585 15.95340432  2462"
      },
      "geometry": {
        "type": "Point",
        "coordinates": [
          -57.44870315822033,
          2.723092915359226
        ]
      }
    }
  ]
}